NORAD_CAT_ID,OBJECT_NAME,OBJECT_TYPE,EPOCH,MEAN_MOTION,ECCENTRICITY,INCLINATION,RA_OF_ASC_NODE,ARG_OF_PERICENTER,MEAN_ANOMALY,BSTAR,MEAN_MOTION_DOT,MEAN_MOTION_DDOT,TLE_LINE0,TLE_LINE1,TLE_LINE2,SEMIMAJOR_AXIS,PERIOD,APOGEE,PERIGEE,DECAYED
55299.0,STARLINK-5270,PAYLOAD,2023-02-15 22:59:54,15.69984733,0.0003689,70.0002,351.7996,271.9916,88.0858,0.0010264,0.00125384,0.0,0 STARLINK-5270,1 55299U 23010AG  23046.95826738  .00125384  00000-0  10264-2 0  9997,2 55299  70.0002 351.7996 0003689 271.9916  88.0858 15.69984733  4817,6737.078,91.721,361.428,356.457,0.0
55299.0,STARLINK-5270,PAYLOAD,2023-02-16 08:10:25,15.69912124,0.0003418,70.0009,350.7248,274.0056,86.0749,0.00045471,0.00054793,0.0,0 STARLINK-5270,1 55299U 23010AG  23047.34057292  .00054793  00000-0  45471-3 0  9996,2 55299  70.0009 350.7248 0003418 274.0056  86.0749 15.69912124  4870,6737.285,91.725,361.453,356.848,0.0
55299.0,STARLINK-5270,PAYLOAD,2023-02-16 12:45:41,15.69896231,0.0003533,70.0005,350.1879,275.8171,84.2621,0.0005288,0.00063784,0.0,0 STARLINK-5270,1 55299U 23010AG  23047.53172764  .00063784  00000-0  52880-3 0  9991,2 55299  70.0005 350.1879 0003533 275.8171  84.2621 15.69896231  6090,6737.331,91.726,361.576,356.816,0.0
55299.0,STARLINK-5270,PAYLOAD,2023-02-16 14:17:26,15.69902975,0.0003563,70.0007,350.0082,275.798,84.2809,0.00054333,0.00065575,0.0,0 STARLINK-5270,1 55299U 23010AG  23047.59544496  .00065575  00000-0  54333-3 0  9997,2 55299  70.0007 350.0082 0003563 275.7980  84.2809 15.69902975  4917,6737.312,91.725,361.577,356.776,0.0
55299.0,STARLINK-5270,PAYLOAD,2023-02-16 21:56:12,15.69924803,0.0003473,70.0009,349.1121,271.6648,88.415,0.00043297,0.00052175,0.0,0 STARLINK-5270,1 55299U 23010AG  23047.91403126  .00052175  00000-0  43297-3 0  9996,2 55299  70.0009 349.1121 0003473 271.6648  88.4150 15.69924803  6155,6737.249,91.724,361.454,356.774,0.0
55299.0,STARLINK-5270,PAYLOAD,2023-02-17 01:00:06,15.67798389,0.0013901,70.0008,348.7555,183.947,176.1618,-0.015501,-0.01539123,0.0,0 STARLINK-5270,1 55299U 23010AG  23048.04173621 -.01539123  00000-0 -15501-1 0  9996,2 55299  70.0008 348.7555 0013901 183.9470 176.1618 15.67798389  4984,6743.34,91.849,374.579,355.831,0.0
55299.0,STARLINK-5270,PAYLOAD,2023-02-17 22:00:00,15.70002214,0.000362,70.0013,346.2932,271.9116,353.0902,-0.00054586,-0.00065553,0.0,0 STARLINK-5270,1 55299U 23010AG  23048.91667824 -.00065553  00000-0 -54586-3 0  9993,2 55299  70.0013 346.2932 0003620 271.9116 353.0902 15.70002214  5122,6737.028,91.72,361.331,356.454,0.0
55299.0,STARLINK-5270,PAYLOAD,2023-02-18 00:00:02,15.70017791,0.0003631,70.0012,346.0589,274.7132,101.2026,-0.001059,-0.00126153,0.0,0 STARLINK-5270,1 55299U 23010AG  23049.00002315 -.00126153  00000-0 -10590-2 0  9992,2 55299  70.0012 346.0589 0003631 274.7132 101.2026 15.70017791  5135,6736.983,91.719,361.294,356.402,0.0
55299.0,STARLINK-5270,PAYLOAD,2023-02-18 21:20:30,15.69932937,0.0003603,70.0016,343.5587,272.0084,88.0699,0.00023646,0.00028327,0.0,0 STARLINK-5270,1 55299U 23010AG  23049.88924475  .00028327  00000-0  23646-3 0  9997,2 55299  70.0016 343.5587 0003603 272.0084  88.0699 15.69932937  5274,6737.226,91.724,361.518,356.663,0.0
55299.0,STARLINK-5270,PAYLOAD,2023-02-19 04:59:16,15.69923486,0.0003577,70.0014,342.6636,273.788,86.2906,-3.8956e-05,-4.894e-05,0.0,0 STARLINK-5270,1 55299U 23010AG  23050.20782790 -.00004894  00000-0 -38956-4 0  9993,2 55299  70.0014 342.6636 0003577 273.7880  86.2906 15.69923486  5325,6737.253,91.724,361.528,356.708,0.0
55299.0,STARLINK-5270,PAYLOAD,2023-02-19 12:38:01,15.69919589,0.0003627,70.0017,341.7675,272.2332,87.8448,0.00036745,0.00044197,0.0,0 STARLINK-5270,1 55299U 23010AG  23050.52641199  .00044197  00000-0  36745-3 0  9996,2 55299  70.0017 341.7675 0003627 272.2332  87.8448 15.69919589  6567,6737.264,91.724,361.573,356.685,0.0
55299.0,STARLINK-5270,PAYLOAD,2023-02-19 23:20:18,15.69944575,0.0003606,70.0016,340.5133,272.0477,88.0306,0.00062816,0.00076074,0.0,0 STARLINK-5270,1 55299U 23010AG  23050.97243057  .00076074  00000-0  62816-3 0  9993,2 55299  70.0016 340.5133 0003606 272.0477  88.0306 15.69944575  5442,6737.193,91.723,361.487,356.628,0.0
55299.0,STARLINK-5270,PAYLOAD,2023-02-20 06:59:03,15.69953423,0.0003415,70.0017,339.6177,270.9952,89.0852,0.00056623,0.00068513,0.0,0 STARLINK-5270,1 55299U 23010AG  23051.29101251  .00068513  00000-0  56623-3 0  9996,2 55299  70.0017 339.6177 0003415 270.9952  89.0852 15.69953423  5497,6737.167,91.722,361.333,356.732,0.0
55299.0,STARLINK-5270,PAYLOAD,2023-02-20 13:06:04,15.69916428,0.0003464,70.0017,338.9012,266.3314,93.7485,0.00030009,0.00036015,0.0,0 STARLINK-5270,1 55299U 23010AG  23051.54588201  .00036015  00000-0  30009-3 0  9990,2 55299  70.0017 338.9012 0003464 266.3314  93.7485 15.69916428  5535,6737.273,91.725,361.472,356.804,0.0
55299.0,STARLINK-5270,PAYLOAD,2023-02-21 04:23:35,15.69948395,0.0003439,70.0016,337.1102,262.7933,97.2872,0.00036068,0.00043425,0.0,0 STARLINK-5270,1 55299U 23010AG  23052.18304776  .00043425  00000-0  36068-3 0  9998,2 55299  70.0016 337.1102 0003439 262.7933  97.2872 15.69948395  5632,6737.182,91.723,361.364,356.73,0.0
55299.0,STARLINK-5270,PAYLOAD,2023-02-21 13:34:05,15.69937469,0.0003709,70.0014,336.0353,266.5971,93.48,0.00049677,0.00059985,0.0,0 STARLINK-5270,1 55299U 23010AG  23052.56534638  .00059985  00000-0  49677-3 0  9990,2 55299  70.0014 336.0353 0003709 266.5971  93.4800 15.69937469  5695,6737.213,91.723,361.577,356.579,0.0
55299.0,STARLINK-5270,PAYLOAD,2023-02-21 19:41:06,15.69932762,0.0003892,70.001,335.3189,271.502,88.5729,0.00055579,0.00067184,0.0,0 STARLINK-5270,1 55299U 23010AG  23052.82021430  .00067184  00000-0  55579-3 0  9998,2 55299  70.0010 335.3189 0003892 271.5020  88.5729 15.69932762  5735,6737.226,91.724,361.713,356.469,0.0
55299.0,STARLINK-5270,PAYLOAD,2023-02-21 21:12:51,15.69934456,0.0003733,70.0011,335.1399,267.327,92.7499,0.00034406,0.00041382,0.0,0 STARLINK-5270,1 55299U 23010AG  23052.88393003  .00041382  00000-0  34406-3 0  9990,2 55299  70.0011 335.1399 0003733 267.3270  92.7499 15.69934456  6937,6737.222,91.724,361.602,356.572,0.0
55299.0,STARLINK-5270,PAYLOAD,2023-02-22 04:51:37,15.69914893,0.0003159,70.001,334.2438,274.7903,85.2932,0.00013548,0.00016102,0.0,0 STARLINK-5270,1 55299U 23010AG  23053.20251552  .00016102  00000-0  13548-3 0  9995,2 55299  70.0010 334.2438 0003159 274.7903  85.2932 15.69914893  5792,6737.277,91.725,361.271,357.014,0.0
55299.0,STARLINK-5270,PAYLOAD,2023-02-22 21:40:53,15.69953815,0.0003274,70.0008,332.2733,268.7515,91.3306,0.00052629,0.00063628,0.0,0 STARLINK-5270,1 55299U 23010AG  23053.90340057  .00063628  00000-0  52629-3 0  9999,2 55299  70.0008 332.2733 0003274 268.7515  91.3306 15.69953815  7090,6737.166,91.722,361.237,356.825,0.0
55299.0,STARLINK-5270,PAYLOAD,2023-02-23 03:47:53,15.69954847,0.0003642,70.0007,331.5568,269.2223,90.8555,0.00066045,0.00080068,0.0,0 STARLINK-5270,1 55299U 23010AG  23054.15826364  .00080068  00000-0  66045-3 0  9991,2 55299  70.0007 331.5568 0003642 269.2223  90.8555 15.69954847  5946,6737.163,91.722,361.482,356.575,0.0
55299.0,STARLINK-5270,PAYLOAD,2023-02-23 19:05:25,15.6993102,0.0003855,70.0004,329.7652,270.9772,89.0982,0.0002815,0.00033784,0.0,0 STARLINK-5270,1 55299U 23010AG  23054.79543449  .00033784  00000-0  28150-3 0  9999,2 55299  70.0004 329.7652 0003855 270.9772  89.0982 15.69931020  7236,6737.231,91.724,361.694,356.499,0.0
55299.0,STARLINK-5270,PAYLOAD,2023-02-23 20:37:10,15.69932381,0.0003605,70.0004,329.5866,266.5455,93.5328,0.00013765,0.00016377,0.0,0 STARLINK-5270,1 55299U 23010AG  23054.85915012  .00016377  00000-0  13765-3 0  9990,2 55299  70.0004 329.5866 0003605 266.5455  93.5328 15.69932381  6057,6737.227,91.724,361.521,356.664,0.0
55299.0,STARLINK-5270,PAYLOAD,2023-02-24 11:54:41,15.69941094,0.0003355,69.9995,327.7948,260.6852,99.3964,0.00015944,0.00019015,0.0,0 STARLINK-5270,1 55299U 23010AG  23055.49631540  .00019015  00000-0  15944-3 0  9995,2 55299  69.9995 327.7948 0003355 260.6852  99.3964 15.69941094  7346,6737.203,91.723,361.328,356.807,0.0
55299.0,STARLINK-5270,PAYLOAD,2023-02-24 18:01:42,15.69911825,0.0004052,70.0,327.0779,268.8504,91.2227,-3.5333e-05,-4.458e-05,0.0,0 STARLINK-5270,1 55299U 23010AG  23055.75118658 -.00004458  00000-0 -35333-4 0  9996,2 55299  70.0000 327.0779 0004052 268.8504  91.2227 15.69911825  6194,6737.286,91.725,361.881,356.421,0.0
55299.0,STARLINK-5270,PAYLOAD,2023-02-24 19:33:27,15.69910441,0.0003803,69.9998,326.8985,264.9122,95.164,3.5445e-05,4.049e-05,0.0,0 STARLINK-5270,1 55299U 23010AG  23055.81490592  .00004049  00000-0  35445-4 0  9991,2 55299  69.9998 326.8985 0003803 264.9122  95.1640 15.69910441  7397,6737.29,91.725,361.717,356.593,0.0
55299.0,STARLINK-5270,PAYLOAD,2023-02-25 03:12:13,15.6992214,0.0003626,70.0,326.0035,264.5315,95.5467,0.00024324,0.00029135,0.0,0 STARLINK-5270,1 55299U 23010AG  23056.13349154  .00029135  00000-0  24324-3 0  9990,2 55299  70.0000 326.0035 0003626 264.5315  95.5467 15.69922140  6259,6737.257,91.724,361.565,356.679,0.0
55299.0,STARLINK-5270,PAYLOAD,2023-02-25 18:29:44,15.69946127,0.000353,70.0002,324.2123,262.1709,97.9086,0.00017145,0.00020472,0.0,0 STARLINK-5270,1 55299U 23010AG  23056.77065548  .00020472  00000-0  17145-3 0  9990,2 55299  70.0002 324.2123 0003530 262.1709  97.9086 15.69946127  6359,6737.188,91.723,361.431,356.675,0.0
55299.0,STARLINK-5270,PAYLOAD,2023-02-25 20:01:29,15.69943399,0.0003425,69.9998,324.0319,256.2047,103.8767,0.00013216,0.00015721,0.0,0 STARLINK-5270,1 55299U 23010AG  23056.83437156  .00015721  00000-0  13216-3 0  9991,2 55299  69.9998 324.0319 0003425 256.2047 103.8767 15.69943399  7551,6737.196,91.723,361.368,356.753,0.0
55299.0,STARLINK-5270,PAYLOAD,2023-02-26 03:40:14,15.69949817,0.0003639,70.0004,323.1366,258.1976,101.8811,0.00012664,0.00015059,0.0,0 STARLINK-5270,1 55299U 23010AG  23057.15295099  .00015059  00000-0  12664-3 0  9995,2 55299  70.0004 323.1366 0003639 258.1976 101.8811 15.69949817  6416,6737.178,91.723,361.494,356.591,0.0
